{
  "type": "FeatureCollection",
  "features": [
    {
      "type": "Feature",
      "properties": {
        "norad_id": 31737,
        "name": "FENGYUN 1C DEB",
        "group": "fengyun-1c-debris",
        "lat": -45.5540546024507,
        "lon": 26.06910160057282,
        "alt_km": 633.6636966003871,
        "timestamp": "2025-12-10T07:43:55.063030+00:00",
        "meta_object_name": "FENGYUN 1C DEB",
        "meta_object_id": "1999-025CEL",
        "meta_epoch": "2025-12-09T09:05:57.928416",
        "meta_mean_motion": 14.68701198,
        "meta_eccentricity": 0.014913,
        "meta_inclination": 97.9175,
        "meta_ra_of_asc_node": 16.9987,
        "meta_arg_of_pericenter": 26.4033,
        "meta_mean_anomaly": 346.082,
        "meta_ephemeris_type": 0,
        "meta_classification_type": "U",
        "meta_norad_cat_id": 31737,
        "meta_element_set_no": 999,
        "meta_rev_at_epoch": 98150,
        "meta_bstar": 0.00084960801,
        "meta_mean_motion_dot": 5.81e-05,
        "meta_mean_motion_ddot": 0,
        "tle_line1": "1 31737U 99025CEL 25343.37914269  .00005810  00000+0  84961-3 0  9998",
        "tle_line2": "2 31737  97.9175  16.9987 0149130  26.4033 346.0820 14.68701198981508"
      },
      "geometry": {
        "type": "Point",
        "coordinates": [
          26.06910160057282,
          -45.5540546024507
        ]
      }
    },
    {
      "type": "Feature",
      "properties": {
        "norad_id": 31738,
        "name": "FENGYUN 1C DEB",
        "group": "fengyun-1c-debris",
        "lat": -6.7170148867198485,
        "lon": 52.67947993234691,
        "alt_km": 1032.6752927826474,
        "timestamp": "2025-12-10T07:43:55.063040+00:00",
        "meta_object_name": "FENGYUN 1C DEB",
        "meta_object_id": "1999-025CEM",
        "meta_epoch": "2025-11-17T10:08:15.850752",
        "meta_mean_motion": 13.84884182,
        "meta_eccentricity": 0.03082109,
        "meta_inclination": 99.3633,
        "meta_ra_of_asc_node": 28.6808,
        "meta_arg_of_pericenter": 167.6176,
        "meta_mean_anomaly": 193.2777,
        "meta_ephemeris_type": 0,
        "meta_classification_type": "U",
        "meta_norad_cat_id": 31738,
        "meta_element_set_no": 999,
        "meta_rev_at_epoch": 61907,
        "meta_bstar": 0.0026324864,
        "meta_mean_motion_dot": 4.259e-05,
        "meta_mean_motion_ddot": 0,
        "tle_line1": "1 31738U 99025CEM 25321.42240568  .00004259  00000+0  26325-2 0  9990",
        "tle_line2": "2 31738  99.3633  28.6808 0308210 167.6176 193.2777 13.84884182619073"
      },
      "geometry": {
        "type": "Point",
        "coordinates": [
          52.67947993234691,
          -6.7170148867198485
        ]
      }
    },
    {
      "type": "Feature",
      "properties": {
        "norad_id": 31739,
        "name": "FENGYUN 1C DEB",
        "group": "fengyun-1c-debris",
        "lat": -25.09185808470605,
        "lon": 43.81892113487777,
        "alt_km": 864.7873598338729,
        "timestamp": "2025-12-10T07:43:55.063051+00:00",
        "meta_object_name": "FENGYUN 1C DEB",
        "meta_object_id": "1999-025CEN",
        "meta_epoch": "2025-12-09T14:55:53.584608",
        "meta_mean_motion": 14.19215708,
        "meta_eccentricity": 0.0128492,
        "meta_inclination": 98.7479,
        "meta_ra_of_asc_node": 38.9931,
        "meta_arg_of_pericenter": 87.1219,
        "meta_mean_anomaly": 274.4654,
        "meta_ephemeris_type": 0,
        "meta_classification_type": "U",
        "meta_norad_cat_id": 31739,
        "meta_element_set_no": 999,
        "meta_rev_at_epoch": 95442,
        "meta_bstar": 0.00016594,
        "meta_mean_motion_dot": 3.35e-06,
        "meta_mean_motion_ddot": 0,
        "tle_line1": "1 31739U 99025CEN 25343.62214797  .00000335  00000+0  16594-3 0  9991",
        "tle_line2": "2 31739  98.7479  38.9931 0128492  87.1219 274.4654 14.19215708954420"
      },
      "geometry": {
        "type": "Point",
        "coordinates": [
          43.81892113487777,
          -25.09185808470605
        ]
      }
    },
    {
      "type": "Feature",
      "properties": {
        "norad_id": 31740,
        "name": "FENGYUN 1C DEB",
        "group": "fengyun-1c-debris",
        "lat": 80.07975990714172,
        "lon": 57.37329276478763,
        "alt_km": 727.3329159168125,
        "timestamp": "2025-12-10T07:43:55.063060+00:00",
        "meta_object_name": "FENGYUN 1C DEB",
        "meta_object_id": "1999-025CEP",
        "meta_epoch": "2025-12-07T23:23:54.081600",
        "meta_mean_motion": 14.42100668,
        "meta_eccentricity": 0.00243063,
        "meta_inclination": 99.8211,
        "meta_ra_of_asc_node": 152.6005,
        "meta_arg_of_pericenter": 82.3936,
        "meta_mean_anomaly": 69.7261,
        "meta_ephemeris_type": 0,
        "meta_classification_type": "U",
        "meta_norad_cat_id": 31740,
        "meta_element_set_no": 999,
        "meta_rev_at_epoch": 65006,
        "meta_bstar": 0.0018306589,
        "meta_mean_motion_dot": 5.989e-05,
        "meta_mean_motion_ddot": 0,
        "tle_line1": "1 31740U 99025CEP 25341.97493150  .00005989  00000+0  18307-2 0  9994",
        "tle_line2": "2 31740  99.8211 152.6005 0024306  82.3936  69.7261 14.42100668650062"
      },
      "geometry": {
        "type": "Point",
        "coordinates": [
          57.37329276478763,
          80.07975990714172
        ]
      }
    },
    {
      "type": "Feature",
      "properties": {
        "norad_id": 31742,
        "name": "FENGYUN 1C DEB",
        "group": "fengyun-1c-debris",
        "lat": -33.377589484251104,
        "lon": 18.09104151448706,
        "alt_km": 794.6558018417309,
        "timestamp": "2025-12-10T07:43:55.063070+00:00",
        "meta_object_name": "FENGYUN 1C DEB",
        "meta_object_id": "1999-025CER",
        "meta_epoch": "2025-12-08T21:22:47.349120",
        "meta_mean_motion": 14.39767074,
        "meta_eccentricity": 0.0076746,
        "meta_inclination": 98.9195,
        "meta_ra_of_asc_node": 202.5402,
        "meta_arg_of_pericenter": 340.6654,
        "meta_mean_anomaly": 19.1625,
        "meta_ephemeris_type": 0,
        "meta_classification_type": "U",
        "meta_norad_cat_id": 31742,
        "meta_element_set_no": 999,
        "meta_rev_at_epoch": 96594,
        "meta_bstar": 0.00089179,
        "meta_mean_motion_dot": 2.845e-05,
        "meta_mean_motion_ddot": 0,
        "tle_line1": "1 31742U 99025CER 25342.89082580  .00002845  00000+0  89179-3 0  9993",
        "tle_line2": "2 31742  98.9195 202.5402 0076746 340.6654  19.1625 14.39767074965948"
      },
      "geometry": {
        "type": "Point",
        "coordinates": [
          18.09104151448706,
          -33.377589484251104
        ]
      }
    },
    {
      "type": "Feature",
      "properties": {
        "norad_id": 31743,
        "name": "FENGYUN 1C DEB",
        "group": "fengyun-1c-debris",
        "lat": 11.116822854993403,
        "lon": -89.69943264333949,
        "alt_km": 810.7422554013319,
        "timestamp": "2025-12-10T07:43:55.063080+00:00",
        "meta_object_name": "FENGYUN 1C DEB",
        "meta_object_id": "1999-025CES",
        "meta_epoch": "2025-12-07T14:49:21.254304",
        "meta_mean_motion": 14.31229698,
        "meta_eccentricity": 0.00374652,
        "meta_inclination": 99.1418,
        "meta_ra_of_asc_node": 269.2695,
        "meta_arg_of_pericenter": 234.4051,
        "meta_mean_anomaly": 249.3126,
        "meta_ephemeris_type": 0,
        "meta_classification_type": "U",
        "meta_norad_cat_id": 31743,
        "meta_element_set_no": 999,
        "meta_rev_at_epoch": 95567,
        "meta_bstar": 0.0029097178,
        "meta_mean_motion_dot": 7.709e-05,
        "meta_mean_motion_ddot": 0,
        "tle_line1": "1 31743U 99025CES 25341.61760711  .00007709  00000+0  29097-2 0  9998",
        "tle_line2": "2 31743  99.1418 269.2695 0037465 234.4051 249.3126 14.31229698955679"
      },
      "geometry": {
        "type": "Point",
        "coordinates": [
          -89.69943264333949,
          11.116822854993403
        ]
      }
    },
    {
      "type": "Feature",
      "properties": {
        "norad_id": 31744,
        "name": "FENGYUN 1C DEB",
        "group": "fengyun-1c-debris",
        "lat": 78.98676150873291,
        "lon": -27.41050710153671,
        "alt_km": 663.7362391304414,
        "timestamp": "2025-12-10T07:43:55.063090+00:00",
        "meta_object_name": "FENGYUN 1C DEB",
        "meta_object_id": "1999-025CET",
        "meta_epoch": "2025-12-04T13:59:28.410144",
        "meta_mean_motion": 14.16423838,
        "meta_eccentricity": 0.0316256,
        "meta_inclination": 99.3063,
        "meta_ra_of_asc_node": 89.1727,
        "meta_arg_of_pericenter": 67.4972,
        "meta_mean_anomaly": 295.9356,
        "meta_ephemeris_type": 0,
        "meta_classification_type": "U",
        "meta_norad_cat_id": 31744,
        "meta_element_set_no": 999,
        "meta_rev_at_epoch": 94499,
        "meta_bstar": 0.0032306,
        "meta_mean_motion_dot": 0.00010446,
        "meta_mean_motion_ddot": 0,
        "tle_line1": "1 31744U 99025CET 25338.58296771  .00010446  00000+0  32306-2 0  9990",
        "tle_line2": "2 31744  99.3063  89.1727 0316256  67.4972 295.9356 14.16423838944997"
      },
      "geometry": {
        "type": "Point",
        "coordinates": [
          -27.41050710153671,
          78.98676150873291
        ]
      }
    }
  ]
}